start=new Date('2022-11-16T00:00:00.000Z').valueOf();
sats=[{"APOAPSIS":"548.281","PERIAPSIS":"546.190","REF_FRAME":"TEME","TIME_SYSTEM":"UTC","ELEMENT_SET_NO":"999","COUNTRY_CODE":"US","CENTER_NAME":"EARTH","GP_ID":"217902745","OBJECT_TYPE":"PAYLOAD","MEAN_MOTION_DOT":"0.00001705","DECAY_DATE":null,"EPOCH":"2022-11-15T21:07:25.290912","MEAN_ANOMALY":"308.0739","NORAD_CAT_ID":"44723","BSTAR":"0.00013335000000","TLE_LINE2":"2 44723  53.0538 217.6663 0001510  52.0386 308.0739 15.06392884166401","RA_OF_ASC_NODE":"217.6663","FILE":"3657961","SITE":"AFETR","REV_AT_EPOCH":"16640","MEAN_MOTION_DDOT":"0.0000000000000","SEMIMAJOR_AXIS":"6925.370","MEAN_MOTION":"15.06392884","OBJECT_NAME":"STARLINK-1017","RCS_SIZE":"LARGE","LAUNCH_DATE":"2019-11-11","OBJECT_ID":"2019-074L","PERIOD":"95.593","MEAN_ELEMENT_THEORY":"SGP4","INCLINATION":"53.0538","CLASSIFICATION_TYPE":"U","EPHEMERIS_TYPE":"0","ECCENTRICITY":"0.00015100","ARG_OF_PERICENTER":"52.0386","TLE_LINE1":"1 44723U 19074L   22319.88015383  .00001705  00000-0  13335-3 0  9995"},{"LAUNCH_DATE":"2019-11-11","RCS_SIZE":"LARGE","OBJECT_NAME":"STARLINK-1019","PERIOD":"95.592","OBJECT_ID":"2019-074M","MEAN_MOTION_DDOT":"0.0000000000000","MEAN_MOTION":"15.06394402","SEMIMAJOR_AXIS":"6925.366","TLE_LINE1":"1 44724U 19074M   22319.44521153  .00000797  00000-0  72446-4 0  9994","ARG_OF_PERICENTER":"58.3993","ECCENTRICITY":"0.00020260","MEAN_ELEMENT_THEORY":"SGP4","EPHEMERIS_TYPE":"0","CLASSIFICATION_TYPE":"U","INCLINATION":"53.0541","OBJECT_TYPE":"PAYLOAD","GP_ID":"217842904","CENTER_NAME":"EARTH","COUNTRY_CODE":"US","ELEMENT_SET_NO":"999","MEAN_MOTION_DOT":"0.00000797","PERIAPSIS":"545.828","APOAPSIS":"548.634","TIME_SYSTEM":"UTC","REF_FRAME":"TEME","TLE_LINE2":"2 44724  53.0541 219.6251 0002026  58.3993 301.7194 15.06394402166332","RA_OF_ASC_NODE":"219.6251","FILE":"3657603","REV_AT_EPOCH":"16633","SITE":"AFETR","NORAD_CAT_ID":"44724","MEAN_ANOMALY":"301.7194","EPOCH":"2022-11-15T10:41:06.276192","DECAY_DATE":null,"BSTAR":"0.00007244600000"},{"REV_AT_EPOCH":"16606","SITE":"AFETR","FILE":"3657603","TLE_LINE2":"2 44725  53.0567 239.3022 0001800  63.9726 296.1448 15.06404554166060","RA_OF_ASC_NODE":"239.3022","BSTAR":"0.00007659900000","MEAN_ANOMALY":"296.1448","EPOCH":"2022-11-15T12:24:35.850240","NORAD_CAT_ID":"44725","DECAY_DATE":null,"MEAN_MOTION_DOT":"0.00000860","OBJECT_TYPE":"PAYLOAD","CENTER_NAME":"EARTH","COUNTRY_CODE":"US","ELEMENT_SET_NO":"999","GP_ID":"217843151","TIME_SYSTEM":"UTC","REF_FRAME":"TEME","APOAPSIS":"548.446","PERIAPSIS":"545.953","TLE_LINE1":"1 44725U 19074N   22319.51708160  .00000860  00000-0  76599-4 0  9992","ECCENTRICITY":"0.00018000","ARG_OF_PERICENTER":"63.9726","EPHEMERIS_TYPE":"0","CLASSIFICATION_TYPE":"U","INCLINATION":"53.0567","MEAN_ELEMENT_THEORY":"SGP4","PERIOD":"95.592","OBJECT_ID":"2019-074N","RCS_SIZE":"LARGE","OBJECT_NAME":"STARLINK-1020","LAUNCH_DATE":"2019-11-11","SEMIMAJOR_AXIS":"6925.335","MEAN_MOTION":"15.06404554","MEAN_MOTION_DDOT":"0.0000000000000"},{"MEAN_MOTION_DDOT":"0.0000000000000","MEAN_MOTION":"15.06390981","SEMIMAJOR_AXIS":"6925.376","LAUNCH_DATE":"2019-11-11","OBJECT_NAME":"STARLINK-1021","RCS_SIZE":"LARGE","PERIOD":"95.593","OBJECT_ID":"2019-074P","MEAN_ELEMENT_THEORY":"SGP4","CLASSIFICATION_TYPE":"U","EPHEMERIS_TYPE":"0","INCLINATION":"53.0539","TLE_LINE1":"1 44726U 19074P   22319.83961277  .00002758  00000-0  20403-3 0  9998","ARG_OF_PERICENTER":"59.0773","ECCENTRICITY":"0.00016330","PERIAPSIS":"546.110","APOAPSIS":"548.372","TIME_SYSTEM":"UTC","REF_FRAME":"TEME","OBJECT_TYPE":"PAYLOAD","GP_ID":"217901994","COUNTRY_CODE":"US","ELEMENT_SET_NO":"999","CENTER_NAME":"EARTH","MEAN_MOTION_DOT":"0.00002758","NORAD_CAT_ID":"44726","MEAN_ANOMALY":"301.0377","EPOCH":"2022-11-15T20:09:02.543328","DECAY_DATE":null,"BSTAR":"0.00020403000000","FILE":"3657961","TLE_LINE2":"2 44726  53.0539 217.8382 0001633  59.0773 301.0377 15.06390981166393","RA_OF_ASC_NODE":"217.8382","REV_AT_EPOCH":"16639","SITE":"AFETR"},{"MEAN_ELEMENT_THEORY":"SGP4","INCLINATION":"53.0547","CLASSIFICATION_TYPE":"U","EPHEMERIS_TYPE":"0","ECCENTRICITY":"0.00016160","ARG_OF_PERICENTER":"61.3186","TLE_LINE1":"1 44727U 19074Q   22319.54378466  .00002168  00000-0  16442-3 0  9992","MEAN_MOTION_DDOT":"0.0000000000000","SEMIMAJOR_AXIS":"6925.351","MEAN_MOTION":"15.06399083","OBJECT_NAME":"STARLINK-1022","RCS_SIZE":"LARGE","LAUNCH_DATE":"2019-11-11","OBJECT_ID":"2019-074Q","PERIOD":"95.592","DECAY_DATE":null,"EPOCH":"2022-11-15T13:03:02.994624","MEAN_ANOMALY":"298.7966","NORAD_CAT_ID":"44727","BSTAR":"0.00016442000000","RA_OF_ASC_NODE":"259.1851","TLE_LINE2":"2 44727  53.0547 259.1851 0001616  61.3186 298.7966 15.06399083165979","FILE":"3657521","SITE":"AFETR","REV_AT_EPOCH":"16597","APOAPSIS":"548.336","PERIAPSIS":"546.097","TIME_SYSTEM":"UTC","REF_FRAME":"TEME","COUNTRY_CODE":"US","ELEMENT_SET_NO":"999","CENTER_NAME":"EARTH","GP_ID":"217821234","OBJECT_TYPE":"PAYLOAD","MEAN_MOTION_DOT":"0.00002168"},{"BSTAR":"0.00102960000000","DECAY_DATE":null,"EPOCH":"2022-11-15T21:26:01.758624","MEAN_ANOMALY":"227.0059","NORAD_CAT_ID":"44729","SITE":"AFETR","REV_AT_EPOCH":"16638","FILE":"3657961","TLE_LINE2":"2 44729  53.0015 215.9560 0004295 133.1295 227.0059 15.20186678166387","RA_OF_ASC_NODE":"215.9560","REF_FRAME":"TEME","TIME_SYSTEM":"UTC","APOAPSIS":"508.235","PERIAPSIS":"502.323","MEAN_MOTION_DOT":"0.00022327","COUNTRY_CODE":"US","CENTER_NAME":"EARTH","ELEMENT_SET_NO":"999","GP_ID":"217902995","OBJECT_TYPE":"PAYLOAD","INCLINATION":"53.0015","CLASSIFICATION_TYPE":"U","EPHEMERIS_TYPE":"0","MEAN_ELEMENT_THEORY":"SGP4","ECCENTRICITY":"0.00042950","ARG_OF_PERICENTER":"133.1295","TLE_LINE1":"1 44729U 19074S   22319.89307591  .00022327  00000-0  10296-2 0  9992","SEMIMAJOR_AXIS":"6883.414","MEAN_MOTION":"15.20186678","MEAN_MOTION_DDOT":"0.0000000000000","OBJECT_ID":"2019-074S","PERIOD":"94.725","RCS_SIZE":"LARGE","OBJECT_NAME":"STARLINK-1024","LAUNCH_DATE":"2019-11-11"},{"SEMIMAJOR_AXIS":"6925.337","MEAN_MOTION":"15.06403699","MEAN_MOTION_DDOT":"0.0000000000000","PERIOD":"95.592","OBJECT_ID":"2019-074U","RCS_SIZE":"LARGE","OBJECT_NAME":"STARLINK-1026","LAUNCH_DATE":"2019-11-11","EPHEMERIS_TYPE":"0","CLASSIFICATION_TYPE":"U","INCLINATION":"53.0531","MEAN_ELEMENT_THEORY":"SGP4","TLE_LINE1":"1 44731U 19074U   22319.45259790  .00006295  00000-0  44106-3 0  9998","ECCENTRICITY":"0.00017550","ARG_OF_PERICENTER":"60.7179","TIME_SYSTEM":"UTC","REF_FRAME":"TEME","APOAPSIS":"548.418","PERIAPSIS":"545.987","MEAN_MOTION_DOT":"0.00006295","OBJECT_TYPE":"PAYLOAD","CENTER_NAME":"EARTH","COUNTRY_CODE":"US","ELEMENT_SET_NO":"999","GP_ID":"217843652","BSTAR":"0.00044106000000","MEAN_ANOMALY":"299.3986","EPOCH":"2022-11-15T10:51:44.458560","NORAD_CAT_ID":"44731","DECAY_DATE":null,"REV_AT_EPOCH":"16633","SITE":"AFETR","FILE":"3657603","TLE_LINE2":"2 44731  53.0531 219.5949 0001755  60.7179 299.3986 15.06403699166333","RA_OF_ASC_NODE":"219.5949"},{"MEAN_ANOMALY":"302.5762","EPOCH":"2022-11-15T12:08:40.412256","NORAD_CAT_ID":"44732","DECAY_DATE":null,"BSTAR":"0.00010240000000","FILE":"3657603","TLE_LINE2":"2 44732  53.0567 239.3486 0001876  57.5408 302.5762 15.06393211166069","RA_OF_ASC_NODE":"239.3486","REV_AT_EPOCH":"16606","SITE":"AFETR","APOAPSIS":"548.534","PERIAPSIS":"545.935","TIME_SYSTEM":"UTC","REF_FRAME":"TEME","OBJECT_TYPE":"PAYLOAD","ELEMENT_SET_NO":"999","COUNTRY_CODE":"US","CENTER_NAME":"EARTH","GP_ID":"217843397","MEAN_MOTION_DOT":"0.00001244","MEAN_ELEMENT_THEORY":"SGP4","CLASSIFICATION_TYPE":"U","EPHEMERIS_TYPE":"0","INCLINATION":"53.0567","TLE_LINE1":"1 44732U 19074V   22319.50602329  .00001244  00000-0  10240-3 0  9996","ECCENTRICITY":"0.00018760","ARG_OF_PERICENTER":"57.5408","MEAN_MOTION_DDOT":"0.0000000000000","SEMIMAJOR_AXIS":"6925.369","MEAN_MOTION":"15.06393211","RCS_SIZE":"LARGE","OBJECT_NAME":"STARLINK-1027","LAUNCH_DATE":"2019-11-11","PERIOD":"95.593","OBJECT_ID":"2019-074V"},{"MEAN_MOTION_DDOT":"0.0000000000000","SEMIMAJOR_AXIS":"6925.361","MEAN_MOTION":"15.06396092","OBJECT_NAME":"STARLINK-1028","RCS_SIZE":"LARGE","LAUNCH_DATE":"2019-11-11","OBJECT_ID":"2019-074W","PERIOD":"95.592","MEAN_ELEMENT_THEORY":"SGP4","INCLINATION":"53.0537","EPHEMERIS_TYPE":"0","CLASSIFICATION_TYPE":"U","ECCENTRICITY":"0.00013740","ARG_OF_PERICENTER":"82.9542","TLE_LINE1":"1 44733U 19074W   22319.90227389  .00004190  00000-0  30003-3 0  9992","APOAPSIS":"548.177","PERIAPSIS":"546.274","REF_FRAME":"TEME","TIME_SYSTEM":"UTC","CENTER_NAME":"EARTH","COUNTRY_CODE":"US","ELEMENT_SET_NO":"999","GP_ID":"217902746","OBJECT_TYPE":"PAYLOAD","MEAN_MOTION_DOT":"0.00004190","DECAY_DATE":null,"MEAN_ANOMALY":"277.1603","EPOCH":"2022-11-15T21:39:16.464096","NORAD_CAT_ID":"44733","BSTAR":"0.00030003000000","TLE_LINE2":"2 44733  53.0537 217.5574 0001374  82.9542 277.1603 15.06396092166406","FILE":"3657961","RA_OF_ASC_NODE":"217.5574","SITE":"AFETR","REV_AT_EPOCH":"16640"},{"RCS_SIZE":"LARGE","OBJECT_NAME":"STARLINK-1029","LAUNCH_DATE":"2019-11-11","PERIOD":"95.592","OBJECT_ID":"2019-074X","MEAN_MOTION_DDOT":"0.0000000000000","SEMIMAJOR_AXIS":"6925.341","MEAN_MOTION":"15.06402399","TLE_LINE1":"1 44734U 19074X   22319.85067399 -.00000215  00000-0  44442-5 0  9999","ECCENTRICITY":"0.00013670","ARG_OF_PERICENTER":"68.1349","MEAN_ELEMENT_THEORY":"SGP4","CLASSIFICATION_TYPE":"U","EPHEMERIS_TYPE":"0","INCLINATION":"53.0534","OBJECT_TYPE":"PAYLOAD","COUNTRY_CODE":"US","ELEMENT_SET_NO":"999","CENTER_NAME":"EARTH","GP_ID":"217902497","MEAN_MOTION_DOT":"-0.00000215","APOAPSIS":"548.153","PERIAPSIS":"546.260","REF_FRAME":"TEME","TIME_SYSTEM":"UTC","FILE":"3657961","TLE_LINE2":"2 44734  53.0534 137.8019 0001367  68.1349 291.9785 15.06402399167498","RA_OF_ASC_NODE":"137.8019","REV_AT_EPOCH":"16749","SITE":"AFETR","MEAN_ANOMALY":"291.9785","EPOCH":"2022-11-15T20:24:58.232736","NORAD_CAT_ID":"44734","DECAY_DATE":null,"BSTAR":"0.00000444420000"}];
